GLOBALSTAR M057         
1 25943U 99058A   25256.24871604 -.00000108  00000+0 -13795-3 0  9994
2 25943  51.9974  98.2848 0002383 175.5100 184.5771 12.24826769177728
GLOBALSTAR M059         
1 25944U 99058B   25256.21306741 -.00000013  00000+0  90614-3 0  9996
2 25944  52.0045 329.0369 0000872 123.9781 271.1066 11.99986120584615
GLOBALSTAR M056         
1 25945U 99058C   25255.97601723 -.00000083  00000+0  53480-4 0  9995
2 25945  51.9988 329.3855 0000774  25.9375 144.7823 12.04779000173203
GLOBALSTAR M031         
1 25946U 99058D   25256.18617587 -.00000063  00000+0  28253-3 0  9992
2 25946  51.9950 215.8690 0001650   7.4422   7.8502 12.16040278175252
GLOBALSTAR M039         
1 25961U 99062A   25255.97559814 -.00000077  00000+0  14818-3 0  9995
2 25961  51.9876   1.3286 0002875 169.3501 190.7427 12.62331972191308
GLOBALSTAR M034         
1 25962U 99062B   25256.10712417 -.00000114  00000+0 -52117-3 0  9999
2 25962  51.9863 142.8459 0013472 205.8031 303.0321 11.79447920148769
GLOBALSTAR M029         
1 25963U 99062C   25256.22352765 -.00000067  00000+0  23302-3 0  9999
2 25963  51.9785 216.9654 0002464 300.3446  74.5151 11.99900795179696
GLOBALSTAR M061         
1 25964U 99062D   25256.19471709 -.00000046  00000+0  55488-3 0  9993
2 25964  51.9822 327.8243 0006378 130.1109 244.4959 11.76776287131546
