<?xml version="1.0" encoding="UTF-8"?>
<ndm xmlns:xsi="http://www.w3.org/2001/XMLSchema-instance" xsi:noNamespaceSchemaLocation="https://sanaregistry.org/r/ndmxml_unqualified/ndmxml-2.0.0-master-2.0.xsd">
<omm id="CCSDS_OMM_VERS" version="2.0">
<header><CREATION_DATE/><ORIGINATOR/></header><body><segment><metadata><OBJECT_NAME>GLOBALSTAR M057</OBJECT_NAME><OBJECT_ID>1999-058A</OBJECT_ID><CENTER_NAME>EARTH</CENTER_NAME><REF_FRAME>TEME</REF_FRAME><TIME_SYSTEM>UTC</TIME_SYSTEM><MEAN_ELEMENT_THEORY>SGP4</MEAN_ELEMENT_THEORY></metadata><data><meanElements><EPOCH>2025-09-13T05:58:09.065856</EPOCH><MEAN_MOTION>12.24826769</MEAN_MOTION><ECCENTRICITY>.0002383</ECCENTRICITY><INCLINATION>51.9974</INCLINATION><RA_OF_ASC_NODE>98.2848</RA_OF_ASC_NODE><ARG_OF_PERICENTER>175.5100</ARG_OF_PERICENTER><MEAN_ANOMALY>184.5771</MEAN_ANOMALY></meanElements><tleParameters><EPHEMERIS_TYPE>0</EPHEMERIS_TYPE><CLASSIFICATION_TYPE>U</CLASSIFICATION_TYPE><NORAD_CAT_ID>25943</NORAD_CAT_ID><ELEMENT_SET_NO>999</ELEMENT_SET_NO><REV_AT_EPOCH>17772</REV_AT_EPOCH><BSTAR>-.13794518E-3</BSTAR><MEAN_MOTION_DOT>-.108E-5</MEAN_MOTION_DOT><MEAN_MOTION_DDOT>0</MEAN_MOTION_DDOT></tleParameters></data></segment></body></omm>
<omm id="CCSDS_OMM_VERS" version="2.0">
<header><CREATION_DATE/><ORIGINATOR/></header><body><segment><metadata><OBJECT_NAME>GLOBALSTAR M059</OBJECT_NAME><OBJECT_ID>1999-058B</OBJECT_ID><CENTER_NAME>EARTH</CENTER_NAME><REF_FRAME>TEME</REF_FRAME><TIME_SYSTEM>UTC</TIME_SYSTEM><MEAN_ELEMENT_THEORY>SGP4</MEAN_ELEMENT_THEORY></metadata><data><meanElements><EPOCH>2025-09-13T05:06:49.024224</EPOCH><MEAN_MOTION>11.99986120</MEAN_MOTION><ECCENTRICITY>.00008729</ECCENTRICITY><INCLINATION>52.0045</INCLINATION><RA_OF_ASC_NODE>329.0369</RA_OF_ASC_NODE><ARG_OF_PERICENTER>123.9781</ARG_OF_PERICENTER><MEAN_ANOMALY>271.1066</MEAN_ANOMALY></meanElements><tleParameters><EPHEMERIS_TYPE>0</EPHEMERIS_TYPE><CLASSIFICATION_TYPE>U</CLASSIFICATION_TYPE><NORAD_CAT_ID>25944</NORAD_CAT_ID><ELEMENT_SET_NO>999</ELEMENT_SET_NO><REV_AT_EPOCH>58461</REV_AT_EPOCH><BSTAR>.90614275E-3</BSTAR><MEAN_MOTION_DOT>-.13E-6</MEAN_MOTION_DOT><MEAN_MOTION_DDOT>0</MEAN_MOTION_DDOT></tleParameters></data></segment></body></omm>
<omm id="CCSDS_OMM_VERS" version="2.0">
<header><CREATION_DATE/><ORIGINATOR/></header><body><segment><metadata><OBJECT_NAME>GLOBALSTAR M056</OBJECT_NAME><OBJECT_ID>1999-058C</OBJECT_ID><CENTER_NAME>EARTH</CENTER_NAME><REF_FRAME>TEME</REF_FRAME><TIME_SYSTEM>UTC</TIME_SYSTEM><MEAN_ELEMENT_THEORY>SGP4</MEAN_ELEMENT_THEORY></metadata><data><meanElements><EPOCH>2025-09-12T23:25:27.888672</EPOCH><MEAN_MOTION>12.04779000</MEAN_MOTION><ECCENTRICITY>.00007742</ECCENTRICITY><INCLINATION>51.9988</INCLINATION><RA_OF_ASC_NODE>329.3855</RA_OF_ASC_NODE><ARG_OF_PERICENTER>25.9375</ARG_OF_PERICENTER><MEAN_ANOMALY>144.7823</MEAN_ANOMALY></meanElements><tleParameters><EPHEMERIS_TYPE>0</EPHEMERIS_TYPE><CLASSIFICATION_TYPE>U</CLASSIFICATION_TYPE><NORAD_CAT_ID>25945</NORAD_CAT_ID><ELEMENT_SET_NO>999</ELEMENT_SET_NO><REV_AT_EPOCH>17320</REV_AT_EPOCH><BSTAR>.53480199E-4</BSTAR><MEAN_MOTION_DOT>-.83E-6</MEAN_MOTION_DOT><MEAN_MOTION_DDOT>0</MEAN_MOTION_DDOT></tleParameters></data></segment></body></omm>
<omm id="CCSDS_OMM_VERS" version="2.0">
<header><CREATION_DATE/><ORIGINATOR/></header><body><segment><metadata><OBJECT_NAME>GLOBALSTAR M031</OBJECT_NAME><OBJECT_ID>1999-058D</OBJECT_ID><CENTER_NAME>EARTH</CENTER_NAME><REF_FRAME>TEME</REF_FRAME><TIME_SYSTEM>UTC</TIME_SYSTEM><MEAN_ELEMENT_THEORY>SGP4</MEAN_ELEMENT_THEORY></metadata><data><meanElements><EPOCH>2025-09-13T04:28:05.595168</EPOCH><MEAN_MOTION>12.16040278</MEAN_MOTION><ECCENTRICITY>.00016504</ECCENTRICITY><INCLINATION>51.9950</INCLINATION><RA_OF_ASC_NODE>215.8690</RA_OF_ASC_NODE><ARG_OF_PERICENTER>7.4422</ARG_OF_PERICENTER><MEAN_ANOMALY>7.8502</MEAN_ANOMALY></meanElements><tleParameters><EPHEMERIS_TYPE>0</EPHEMERIS_TYPE><CLASSIFICATION_TYPE>U</CLASSIFICATION_TYPE><NORAD_CAT_ID>25946</NORAD_CAT_ID><ELEMENT_SET_NO>999</ELEMENT_SET_NO><REV_AT_EPOCH>17525</REV_AT_EPOCH><BSTAR>.28252966E-3</BSTAR><MEAN_MOTION_DOT>-.63E-6</MEAN_MOTION_DOT><MEAN_MOTION_DDOT>0</MEAN_MOTION_DDOT></tleParameters></data></segment></body></omm>
<omm id="CCSDS_OMM_VERS" version="2.0">
<header><CREATION_DATE/><ORIGINATOR/></header><body><segment><metadata><OBJECT_NAME>GLOBALSTAR M039</OBJECT_NAME><OBJECT_ID>1999-062A</OBJECT_ID><CENTER_NAME>EARTH</CENTER_NAME><REF_FRAME>TEME</REF_FRAME><TIME_SYSTEM>UTC</TIME_SYSTEM><MEAN_ELEMENT_THEORY>SGP4</MEAN_ELEMENT_THEORY></metadata><data><meanElements><EPOCH>2025-09-12T23:24:51.679296</EPOCH><MEAN_MOTION>12.62331972</MEAN_MOTION><ECCENTRICITY>.00028752</ECCENTRICITY><INCLINATION>51.9876</INCLINATION><RA_OF_ASC_NODE>1.3286</RA_OF_ASC_NODE><ARG_OF_PERICENTER>169.3501</ARG_OF_PERICENTER><MEAN_ANOMALY>190.7427</MEAN_ANOMALY></meanElements><tleParameters><EPHEMERIS_TYPE>0</EPHEMERIS_TYPE><CLASSIFICATION_TYPE>U</CLASSIFICATION_TYPE><NORAD_CAT_ID>25961</NORAD_CAT_ID><ELEMENT_SET_NO>999</ELEMENT_SET_NO><REV_AT_EPOCH>19130</REV_AT_EPOCH><BSTAR>.14817546E-3</BSTAR><MEAN_MOTION_DOT>-.77E-6</MEAN_MOTION_DOT><MEAN_MOTION_DDOT>0</MEAN_MOTION_DDOT></tleParameters></data></segment></body></omm>
<omm id="CCSDS_OMM_VERS" version="2.0">
<header><CREATION_DATE/><ORIGINATOR/></header><body><segment><metadata><OBJECT_NAME>GLOBALSTAR M034</OBJECT_NAME><OBJECT_ID>1999-062B</OBJECT_ID><CENTER_NAME>EARTH</CENTER_NAME><REF_FRAME>TEME</REF_FRAME><TIME_SYSTEM>UTC</TIME_SYSTEM><MEAN_ELEMENT_THEORY>SGP4</MEAN_ELEMENT_THEORY></metadata><data><meanElements><EPOCH>2025-09-13T02:34:15.528288</EPOCH><MEAN_MOTION>11.79447920</MEAN_MOTION><ECCENTRICITY>.00134726</ECCENTRICITY><INCLINATION>51.9863</INCLINATION><RA_OF_ASC_NODE>142.8459</RA_OF_ASC_NODE><ARG_OF_PERICENTER>205.8031</ARG_OF_PERICENTER><MEAN_ANOMALY>303.0321</MEAN_ANOMALY></meanElements><tleParameters><EPHEMERIS_TYPE>0</EPHEMERIS_TYPE><CLASSIFICATION_TYPE>U</CLASSIFICATION_TYPE><NORAD_CAT_ID>25962</NORAD_CAT_ID><ELEMENT_SET_NO>999</ELEMENT_SET_NO><REV_AT_EPOCH>14876</REV_AT_EPOCH><BSTAR>-.52117305E-3</BSTAR><MEAN_MOTION_DOT>-.114E-5</MEAN_MOTION_DOT><MEAN_MOTION_DDOT>0</MEAN_MOTION_DDOT></tleParameters></data></segment></body></omm>
<omm id="CCSDS_OMM_VERS" version="2.0">
<header><CREATION_DATE/><ORIGINATOR/></header><body><segment><metadata><OBJECT_NAME>GLOBALSTAR M029</OBJECT_NAME><OBJECT_ID>1999-062C</OBJECT_ID><CENTER_NAME>EARTH</CENTER_NAME><REF_FRAME>TEME</REF_FRAME><TIME_SYSTEM>UTC</TIME_SYSTEM><MEAN_ELEMENT_THEORY>SGP4</MEAN_ELEMENT_THEORY></metadata><data><meanElements><EPOCH>2025-09-13T05:21:52.788960</EPOCH><MEAN_MOTION>11.99900795</MEAN_MOTION><ECCENTRICITY>.00024647</ECCENTRICITY><INCLINATION>51.9785</INCLINATION><RA_OF_ASC_NODE>216.9654</RA_OF_ASC_NODE><ARG_OF_PERICENTER>300.3446</ARG_OF_PERICENTER><MEAN_ANOMALY>74.5151</MEAN_ANOMALY></meanElements><tleParameters><EPHEMERIS_TYPE>0</EPHEMERIS_TYPE><CLASSIFICATION_TYPE>U</CLASSIFICATION_TYPE><NORAD_CAT_ID>25963</NORAD_CAT_ID><ELEMENT_SET_NO>999</ELEMENT_SET_NO><REV_AT_EPOCH>17969</REV_AT_EPOCH><BSTAR>.23302139E-3</BSTAR><MEAN_MOTION_DOT>-.67E-6</MEAN_MOTION_DOT><MEAN_MOTION_DDOT>0</MEAN_MOTION_DDOT></tleParameters></data></segment></body></omm>
<omm id="CCSDS_OMM_VERS" version="2.0">
<header><CREATION_DATE/><ORIGINATOR/></header><body><segment><metadata><OBJECT_NAME>GLOBALSTAR M061</OBJECT_NAME><OBJECT_ID>1999-062D</OBJECT_ID><CENTER_NAME>EARTH</CENTER_NAME><REF_FRAME>TEME</REF_FRAME><TIME_SYSTEM>UTC</TIME_SYSTEM><MEAN_ELEMENT_THEORY>SGP4</MEAN_ELEMENT_THEORY></metadata><data><meanElements><EPOCH>2025-09-13T04:40:23.556576</EPOCH><MEAN_MOTION>11.76776287</MEAN_MOTION><ECCENTRICITY>.0006378</ECCENTRICITY><INCLINATION>51.9822</INCLINATION><RA_OF_ASC_NODE>327.8243</RA_OF_ASC_NODE><ARG_OF_PERICENTER>130.1109</ARG_OF_PERICENTER><MEAN_ANOMALY>244.4959</MEAN_ANOMALY></meanElements><tleParameters><EPHEMERIS_TYPE>0</EPHEMERIS_TYPE><CLASSIFICATION_TYPE>U</CLASSIFICATION_TYPE><NORAD_CAT_ID>25964</NORAD_CAT_ID><ELEMENT_SET_NO>999</ELEMENT_SET_NO><REV_AT_EPOCH>13154</REV_AT_EPOCH><BSTAR>.55488404E-3</BSTAR><MEAN_MOTION_DOT>-.46E-6</MEAN_MOTION_DOT><MEAN_MOTION_DDOT>0</MEAN_MOTION_DDOT></tleParameters></data></segment></body></omm>

</ndm>
